KUIPER-00199            
1 67771U 26030H   26065.85308700  .00028484  00000+0  85315-3 0  9999
2 67771  51.8818 233.0492 0010482  52.7705 307.4235 15.34243689  4659
KUIPER-00200            
1 67772U 26030J   26065.81563350  .00040300  00000+0  11032-2 0  9995
2 67772  51.8804 232.8116 0001222 232.7594 127.3281 15.36938480  4655
KUIPER-00203            
1 67773U 26030K   26065.83334490 -.01367463  00000+0 -68542-1 0  9991
2 67773  51.8832 233.5132 0011778  51.4373 352.7996 15.20116818  3215
KUIPER-00205            
1 67774U 26030L   26065.82531427  .00046234  00000+0  12902-2 0  9997
2 67774  51.8805 232.8738 0003080  12.6243 347.4820 15.36275514  4654
KUIPER-00208            
1 67775U 26030M   26065.80256868  .00026475  00000+0  84180-3 0  9992
2 67775  51.8836 233.4650 0014840  52.3701 307.8628 15.32330810  4647
KUIPER-00209            
1 67776U 26030N   26065.83334490  .00053162  00000+0  17874-2 0  9992
2 67776  51.8826 233.3956 0012885  59.5111  71.4791 15.30222545  4048
KUIPER-00213            
1 67777U 26030P   26065.80300679  .00035992  00000+0  11277-2 0  9994
2 67777  51.8815 233.4594 0015065  56.1993 304.0424 15.32637786  4643
KUIPER-00214            
1 67778U 26030Q   26065.81859656  .00029746  00000+0  82678-3 0  9994
2 67778  51.8838 232.8364 0000463 213.6712 146.4245 15.36613882  4657
KUIPER-00215            
1 67779U 26030R   26065.78625671  .00029438  00000+0  87868-3 0  9993
2 67779  51.8849 233.3610 0010153  51.9256 308.2644 15.34338524  4648
KUIPER-00218            
1 67780U 26030S   26065.84114718  .00027419  00000+0  80166-3 0  9998
2 67780  51.8839 232.9797 0006737  43.1388 317.0124 15.35055980  4657
KUIPER-00220            
1 67781U 26030T   26065.78252501  .00028917  00000+0  85573-3 0  9996
2 67781  51.8818 233.3285 0008420  48.1771 311.9933 15.34634989  4645
KUIPER-00222            
1 67782U 26030U   26065.80680720  .00056329  00000+0  17628-2 0  9991
2 67782  51.8802 233.4817 0018437  49.2414 311.0167 15.32416737  4643
KUIPER-00223            
1 67783U 26030V   26065.85500039  .00026072  00000+0  78785-3 0  9995
2 67783  51.8835 233.0666 0012463  51.9423 308.2685 15.33991056  4658
KUIPER-00225            
1 67784U 26030W   26065.83152278  .00027915  00000+0  79763-3 0  9996
2 67784  51.8810 232.9124 0004329  32.0412 328.0837 15.35778178  4658
KUIPER-00226            
1 67785U 26030X   26065.81921320  .00018293  00000+0  60720-3 0  9999
2 67785  51.8807 233.5633 0019436  65.1236 295.1766 15.31110893  4647
KUIPER-00259            
1 67786U 26030Y   26065.84327876  .00028234  00000+0  82740-3 0  9991
2 67786  51.8817 232.9870 0008442  41.6428 318.5200 15.34955015  4652
KUIPER-00260            
1 67787U 26030Z   26065.82333266  .00030107  00000+0  84384-3 0  9998
2 67787  51.8794 232.8583 0001112  52.7201 307.3887 15.36346575  4560
