[{"OBJECT_NAME":"KUIPER-00199","OBJECT_ID":"2026-030H","EPOCH":"2026-03-06T20:28:26.716800","MEAN_MOTION":15.34243689,"ECCENTRICITY":0.0010482,"INCLINATION":51.8818,"RA_OF_ASC_NODE":233.0492,"ARG_OF_PERICENTER":52.7705,"MEAN_ANOMALY":307.4235,"EPHEMERIS_TYPE":0,"CLASSIFICATION_TYPE":"U","NORAD_CAT_ID":67771,"ELEMENT_SET_NO":999,"REV_AT_EPOCH":465,"BSTAR":0.00085315,"MEAN_MOTION_DOT":0.00028484,"MEAN_MOTION_DDOT":0},{"OBJECT_NAME":"KUIPER-00200","OBJECT_ID":"2026-030J","EPOCH":"2026-03-06T19:34:30.734400","MEAN_MOTION":15.3693848,"ECCENTRICITY":0.0001222,"INCLINATION":51.8804,"RA_OF_ASC_NODE":232.8116,"ARG_OF_PERICENTER":232.7594,"MEAN_ANOMALY":127.3281,"EPHEMERIS_TYPE":0,"CLASSIFICATION_TYPE":"U","NORAD_CAT_ID":67772,"ELEMENT_SET_NO":999,"REV_AT_EPOCH":465,"BSTAR":0.0011032,"MEAN_MOTION_DOT":0.000403,"MEAN_MOTION_DDOT":0},{"OBJECT_NAME":"KUIPER-00203","OBJECT_ID":"2026-030K","EPOCH":"2026-03-06T20:00:00.999360","MEAN_MOTION":15.20116818,"ECCENTRICITY":0.0011778,"INCLINATION":51.8832,"RA_OF_ASC_NODE":233.5132,"ARG_OF_PERICENTER":51.4373,"MEAN_ANOMALY":352.7996,"EPHEMERIS_TYPE":0,"CLASSIFICATION_TYPE":"U","NORAD_CAT_ID":67773,"ELEMENT_SET_NO":999,"REV_AT_EPOCH":321,"BSTAR":-0.068542,"MEAN_MOTION_DOT":-0.01367463,"MEAN_MOTION_DDOT":0},{"OBJECT_NAME":"KUIPER-00205","OBJECT_ID":"2026-030L","EPOCH":"2026-03-06T19:48:27.152928","MEAN_MOTION":15.36275514,"ECCENTRICITY":0.000308,"INCLINATION":51.8805,"RA_OF_ASC_NODE":232.8738,"ARG_OF_PERICENTER":12.6243,"MEAN_ANOMALY":347.482,"EPHEMERIS_TYPE":0,"CLASSIFICATION_TYPE":"U","NORAD_CAT_ID":67774,"ELEMENT_SET_NO":999,"REV_AT_EPOCH":465,"BSTAR":0.0012902,"MEAN_MOTION_DOT":0.00046234,"MEAN_MOTION_DDOT":0},{"OBJECT_NAME":"KUIPER-00208","OBJECT_ID":"2026-030M","EPOCH":"2026-03-06T19:15:41.933952","MEAN_MOTION":15.3233081,"ECCENTRICITY":0.001484,"INCLINATION":51.8836,"RA_OF_ASC_NODE":233.465,"ARG_OF_PERICENTER":52.3701,"MEAN_ANOMALY":307.8628,"EPHEMERIS_TYPE":0,"CLASSIFICATION_TYPE":"U","NORAD_CAT_ID":67775,"ELEMENT_SET_NO":999,"REV_AT_EPOCH":464,"BSTAR":0.0008418,"MEAN_MOTION_DOT":0.00026475,"MEAN_MOTION_DDOT":0},{"OBJECT_NAME":"KUIPER-00209","OBJECT_ID":"2026-030N","EPOCH":"2026-03-06T20:00:00.999360","MEAN_MOTION":15.30222545,"ECCENTRICITY":0.0012885,"INCLINATION":51.8826,"RA_OF_ASC_NODE":233.3956,"ARG_OF_PERICENTER":59.5111,"MEAN_ANOMALY":71.4791,"EPHEMERIS_TYPE":0,"CLASSIFICATION_TYPE":"U","NORAD_CAT_ID":67776,"ELEMENT_SET_NO":999,"REV_AT_EPOCH":404,"BSTAR":0.0017874,"MEAN_MOTION_DOT":0.00053162,"MEAN_MOTION_DDOT":0},{"OBJECT_NAME":"KUIPER-00213","OBJECT_ID":"2026-030P","EPOCH":"2026-03-06T19:16:19.786656","MEAN_MOTION":15.32637786,"ECCENTRICITY":0.0015065,"INCLINATION":51.8815,"RA_OF_ASC_NODE":233.4594,"ARG_OF_PERICENTER":56.1993,"MEAN_ANOMALY":304.0424,"EPHEMERIS_TYPE":0,"CLASSIFICATION_TYPE":"U","NORAD_CAT_ID":67777,"ELEMENT_SET_NO":999,"REV_AT_EPOCH":464,"BSTAR":0.0011277,"MEAN_MOTION_DOT":0.00035992,"MEAN_MOTION_DDOT":0},{"OBJECT_NAME":"KUIPER-00214","OBJECT_ID":"2026-030Q","EPOCH":"2026-03-06T19:38:46.742784","MEAN_MOTION":15.36613882,"ECCENTRICITY":4.63e-5,"INCLINATION":51.8838,"RA_OF_ASC_NODE":232.8364,"ARG_OF_PERICENTER":213.6712,"MEAN_ANOMALY":146.4245,"EPHEMERIS_TYPE":0,"CLASSIFICATION_TYPE":"U","NORAD_CAT_ID":67778,"ELEMENT_SET_NO":999,"REV_AT_EPOCH":465,"BSTAR":0.00082678,"MEAN_MOTION_DOT":0.00029746,"MEAN_MOTION_DDOT":0},{"OBJECT_NAME":"KUIPER-00215","OBJECT_ID":"2026-030R","EPOCH":"2026-03-06T18:52:12.579744","MEAN_MOTION":15.34338524,"ECCENTRICITY":0.0010153,"INCLINATION":51.8849,"RA_OF_ASC_NODE":233.361,"ARG_OF_PERICENTER":51.9256,"MEAN_ANOMALY":308.2644,"EPHEMERIS_TYPE":0,"CLASSIFICATION_TYPE":"U","NORAD_CAT_ID":67779,"ELEMENT_SET_NO":999,"REV_AT_EPOCH":464,"BSTAR":0.00087868,"MEAN_MOTION_DOT":0.00029438,"MEAN_MOTION_DDOT":0},{"OBJECT_NAME":"KUIPER-00218","OBJECT_ID":"2026-030S","EPOCH":"2026-03-06T20:11:15.116352","MEAN_MOTION":15.3505598,"ECCENTRICITY":0.0006737,"INCLINATION":51.8839,"RA_OF_ASC_NODE":232.9797,"ARG_OF_PERICENTER":43.1388,"MEAN_ANOMALY":317.0124,"EPHEMERIS_TYPE":0,"CLASSIFICATION_TYPE":"U","NORAD_CAT_ID":67780,"ELEMENT_SET_NO":999,"REV_AT_EPOCH":465,"BSTAR":0.00080166,"MEAN_MOTION_DOT":0.00027419,"MEAN_MOTION_DDOT":0},{"OBJECT_NAME":"KUIPER-00220","OBJECT_ID":"2026-030T","EPOCH":"2026-03-06T18:46:50.160864","MEAN_MOTION":15.34634989,"ECCENTRICITY":0.000842,"INCLINATION":51.8818,"RA_OF_ASC_NODE":233.3285,"ARG_OF_PERICENTER":48.1771,"MEAN_ANOMALY":311.9933,"EPHEMERIS_TYPE":0,"CLASSIFICATION_TYPE":"U","NORAD_CAT_ID":67781,"ELEMENT_SET_NO":999,"REV_AT_EPOCH":464,"BSTAR":0.00085573,"MEAN_MOTION_DOT":0.00028917,"MEAN_MOTION_DDOT":0},{"OBJECT_NAME":"KUIPER-00222","OBJECT_ID":"2026-030U","EPOCH":"2026-03-06T19:21:48.142080","MEAN_MOTION":15.32416737,"ECCENTRICITY":0.0018437,"INCLINATION":51.8802,"RA_OF_ASC_NODE":233.4817,"ARG_OF_PERICENTER":49.2414,"MEAN_ANOMALY":311.0167,"EPHEMERIS_TYPE":0,"CLASSIFICATION_TYPE":"U","NORAD_CAT_ID":67782,"ELEMENT_SET_NO":999,"REV_AT_EPOCH":464,"BSTAR":0.0017628,"MEAN_MOTION_DOT":0.00056329,"MEAN_MOTION_DDOT":0},{"OBJECT_NAME":"KUIPER-00223","OBJECT_ID":"2026-030V","EPOCH":"2026-03-06T20:31:12.033696","MEAN_MOTION":15.33991056,"ECCENTRICITY":0.0012463,"INCLINATION":51.8835,"RA_OF_ASC_NODE":233.0666,"ARG_OF_PERICENTER":51.9423,"MEAN_ANOMALY":308.2685,"EPHEMERIS_TYPE":0,"CLASSIFICATION_TYPE":"U","NORAD_CAT_ID":67783,"ELEMENT_SET_NO":999,"REV_AT_EPOCH":465,"BSTAR":0.00078785,"MEAN_MOTION_DOT":0.00026072,"MEAN_MOTION_DDOT":0},{"OBJECT_NAME":"KUIPER-00225","OBJECT_ID":"2026-030W","EPOCH":"2026-03-06T19:57:23.568192","MEAN_MOTION":15.35778178,"ECCENTRICITY":0.0004329,"INCLINATION":51.881,"RA_OF_ASC_NODE":232.9124,"ARG_OF_PERICENTER":32.0412,"MEAN_ANOMALY":328.0837,"EPHEMERIS_TYPE":0,"CLASSIFICATION_TYPE":"U","NORAD_CAT_ID":67784,"ELEMENT_SET_NO":999,"REV_AT_EPOCH":465,"BSTAR":0.00079763,"MEAN_MOTION_DOT":0.00027915,"MEAN_MOTION_DDOT":0},{"OBJECT_NAME":"KUIPER-00226","OBJECT_ID":"2026-030X","EPOCH":"2026-03-06T19:39:40.020480","MEAN_MOTION":15.31110893,"ECCENTRICITY":0.0019436,"INCLINATION":51.8807,"RA_OF_ASC_NODE":233.5633,"ARG_OF_PERICENTER":65.1236,"MEAN_ANOMALY":295.1766,"EPHEMERIS_TYPE":0,"CLASSIFICATION_TYPE":"U","NORAD_CAT_ID":67785,"ELEMENT_SET_NO":999,"REV_AT_EPOCH":464,"BSTAR":0.0006072,"MEAN_MOTION_DOT":0.00018293,"MEAN_MOTION_DDOT":0},{"OBJECT_NAME":"KUIPER-00259","OBJECT_ID":"2026-030Y","EPOCH":"2026-03-06T20:14:19.284864","MEAN_MOTION":15.34955015,"ECCENTRICITY":0.0008442,"INCLINATION":51.8817,"RA_OF_ASC_NODE":232.987,"ARG_OF_PERICENTER":41.6428,"MEAN_ANOMALY":318.52,"EPHEMERIS_TYPE":0,"CLASSIFICATION_TYPE":"U","NORAD_CAT_ID":67786,"ELEMENT_SET_NO":999,"REV_AT_EPOCH":465,"BSTAR":0.0008274,"MEAN_MOTION_DOT":0.00028234,"MEAN_MOTION_DDOT":0},{"OBJECT_NAME":"KUIPER-00260","OBJECT_ID":"2026-030Z","EPOCH":"2026-03-06T19:45:35.941824","MEAN_MOTION":15.36346575,"ECCENTRICITY":0.0001112,"INCLINATION":51.8794,"RA_OF_ASC_NODE":232.8583,"ARG_OF_PERICENTER":52.7201,"MEAN_ANOMALY":307.3887,"EPHEMERIS_TYPE":0,"CLASSIFICATION_TYPE":"U","NORAD_CAT_ID":67787,"ELEMENT_SET_NO":999,"REV_AT_EPOCH":456,"BSTAR":0.00084384,"MEAN_MOTION_DOT":0.00030107,"MEAN_MOTION_DDOT":0}]
